TDRS 3                  
1 19548U 88091B   18021.41925769 -.00000294  00000-0  00000-0 0  9994
2 19548  14.4447   5.7505 0039041 310.6836 252.9307  1.00277726 94631
SKYNET 4C               
1 20776U 90079A   18021.60980415  .00000132  00000-0  00000+0 0  9997
2 20776  13.9062  13.9475 0002874 286.9518  73.0609  1.00277394100171
TDRS 5                  
1 21639U 91054B   18021.22724522  .00000090  00000-0  00000-0 0  9997
2 21639  14.4980  19.1341 0024780 337.7723  37.7293  1.00275984 96946
TDRS 6                  
1 22314U 93003B   18021.56249844 -.00000289  00000-0  00000-0 0  9991
2 22314  14.0477  22.1065 0008536 299.2073 315.9362  1.00280408 91672
ASTRA 1D                
1 23331U 94070A   18021.40338337 -.00000263  00000-0  00000+0 0  9996
2 23331   7.8852  47.7547 0003864 256.3941 248.7671  1.00272044 85399
BRASILSAT B2            
1 23536U 95016A   18022.06202183 -.00000276  00000-0  00000+0 0  9990
2 23536   7.5126  49.6332 0002311 263.1556 122.9058  1.00272787 83556
AMSC 1                  
1 23553U 95019A   18021.05824410 -.00000112  00000-0  00000-0 0  9993
2 23553  10.3451  38.0000 0003582 261.8048  98.2228  1.00272220 83404
TDRS 7                  
1 23613U 95035B   18021.58667275 -.00000196  00000-0  00000-0 0  9992
2 23613  15.0398  12.8246 0031030 354.5222  49.5780  1.00271099 82480
INMARSAT 3-F1           
1 23839U 96020A   18021.14424293  .00000010  00000-0  00000-0 0  9994
2 23839   4.3960  66.5214 0005910 240.5419 289.7695  1.00271832 79841
ASTRA 1F                
1 23842U 96021A   18021.11899955  .00000142  00000-0  00000+0 0  9992
2 23842   0.0480  56.7454 0003713 238.0874 272.7256  1.00273564 79555
MSAT M1                 
1 23846U 96022A   18021.09543867 -.00000081  00000-0  00000+0 0  9995
2 23846   8.0719  47.2346 0005782 258.1642 101.8451  1.00272002 79668
INMARSAT 3-F2           
1 24307U 96053A   18022.16471413 -.00000122  00000-0  00000+0 0  9994
2 24307   3.0711  76.6565 0007872 227.0295 221.5855  1.00272210 78262
AMC-1 (GE-1)            
1 24315U 96054A   18021.26162479  .00000070  00000-0  00000+0 0  9994
2 24315   2.0239  84.0041 0002564 200.8074 159.0255  1.00272204 78255
AFRICASAT-2 (MEASAT-2)  
1 24653U 96063B   18021.51077461 -.00000225  00000-0  00000-0 0  9997
2 24653   7.8099  48.1634 0010978 210.3195 194.1961  1.00270545 77691
INMARSAT 3-F3           
1 24674U 96070A   18021.56052899  .00000039  00000-0  00000-0 0  9993
2 24674   3.8595  70.7431 0005668 231.7745 198.2329  1.00273945 77202
AMC-2 (GE-2)            
1 24713U 97002A   18021.37520307 -.00000209  00000-0  00000-0 0  9996
2 24713   4.7368  64.8360 0005190 241.1828 224.8760  1.00271332 76815
INTELSAT 26 (IS-26)     
1 24732U 97007A   18022.13488641 -.00000008  00000-0  00000+0 0  9997
2 24732   7.7896  48.4990 0002971 250.9247 296.3465  1.00271671 76518
GALAXY 25 (G-25)        
1 24812U 97026A   18020.92457471 -.00000159  00000-0  00000-0 0  9997
2 24812   0.0163  55.7507 0003506 255.9691  48.2354  1.00270513 75602
INTELSAT 5 (IS-5)       
1 24916U 97046A   18021.42346152 -.00000140  00000-0  00000-0 0  9993
2 24916   3.9715  70.0514 0003913 216.4018 143.5933  1.00271692 74854
AMC-3 (GE-3)            
1 24936U 97050A   18021.78500786 -.00000256  00000-0  00000+0 0  9991
2 24936   0.8435  91.5040 0002523 210.6156  29.5595  1.00272770 74673
NSS-5                   
1 24957U 97053A   18021.27893125  .00000110  00000-0  00000-0 0  9992
2 24957   4.2566  68.2410 0003350 234.5084 328.7250  1.00272000 74404
ASTRA 1G                
1 25071U 97076A   18021.48799361  .00000109  00000-0  00000+0 0  9992
2 25071   2.7678  77.5916 0003158 224.0927  45.8826  1.00274565 73761
BRASILSAT B3            
1 25152U 98006A   18021.02812363 -.00000281  00000-0  00000-0 0  9997
2 25152   4.4377  67.2207 0002601 229.0534 130.9570  1.00270957 12740
INMARSAT 3-F5           
1 25153U 98006B   18021.37216068 -.00000285  00000-0  00000-0 0  9990
2 25153   3.0093  73.7140 0005064 226.5538 260.3694  1.00269372 73113
NSS-806                 
1 25239U 98014A   18021.36785410 -.00000275  00000-0  00000+0 0  9993
2 25239   0.0534 351.3384 0004435 307.2270 267.0305  1.00274014 72886
CHINASAT 5A (ZX 5A)     
1 25354U 98033A   18022.10113588 -.00000351  00000-0  00000+0 0  9991
2 25354   1.7062  85.8790 0005920 196.9204   0.4683  1.00267213 76478
THOR III                
1 25358U 98035A   18020.83921051 -.00000042  00000-0  00000+0 0  9994
2 25358   5.7891  57.9066 0002377 254.0104 106.0272  1.00271724 71935
INTELSAT 805 (IS-805)   
1 25371U 98037A   18021.61434799 -.00000028  00000-0  00000+0 0  9990
2 25371   0.4782  93.9721 0003167 206.3028 210.7937  1.00272029 71796
ASTRA 2A                
1 25462U 98050A   18021.58174300 -.00000356  00000-0  00000-0 0  9996
2 25462   0.0531 240.6618 0002214  53.3559 149.7725  1.00273826 15590
JCSAT-4A                
1 25630U 99006A   18021.56226569 -.00000201  00000-0  00000-0 0  9997
2 25630   2.7427  78.9673 0006373 216.1311 178.1589  1.00270453 19847
SKYNET 4E               
1 25639U 99009B   18021.13318368 -.00000027  00000-0  00000+0 0  9996
2 25639  10.3133  26.9560 0003588 274.1690 226.0654  1.00270418 69248
ASIASAT 3S              
1 25657U 99013A   18021.86493777 -.00000234  00000-0  00000+0 0  9999
2 25657   2.9543  77.2338 0003841 225.8625 275.4930  1.00271837 69055
NIMIQ 1                 
1 25740U 99027A   18021.44077028 -.00000195  00000-0  00000-0 0  9995
2 25740   0.0124 351.5091 0004430 311.1936 250.1778  1.00272316 68439
ASTRA 1H                
1 25785U 99033A   18021.55323770 -.00000283  00000-0  00000-0 0  9999
2 25785   4.2428  68.3933 0002719 305.7432 257.9162  1.00027878 20641
ABS-7                   
1 25894U 99046A   18021.57684823 -.00000359  00000-0  00000-0 0  9999
2 25894   0.0165  84.5286 0002213 276.5928  83.5567  1.00268811 66353
ABS-6                   
1 25924U 99053A   18021.22344254 -.00000117  00000-0  00000-0 0  9996
2 25924   0.0161 351.3061 0000225 239.4611 129.2164  1.00271565 67113
TELSTAR 12 (ORION 2)    
1 25949U 99059A   18021.59424108 -.00000059  00000-0  00000+0 0  9990
2 25949   1.3965  87.9775 0002950 219.9130 277.7104  1.00271361 66752
AMC-4 (GE-4)            
1 25954U 99060A   18021.04033156  .00000091  00000-0  00000+0 0  9992
2 25954   0.0152   5.7558 0002505 289.7099  64.4938  1.00271634 66719
GALAXY 11 (G-11)        
1 26038U 99071A   18021.72479904  .00000141  00000-0  00000+0 0  9994
2 26038   0.1173  95.6697 0000524 226.6320 104.5125  1.00271852 66339
SUPERBIRD-B2            
1 26095U 00012A   18021.51117101 -.00000090  00000-0  00000-0 0  9994
2 26095   0.8675  92.4617 0002805 218.2818 156.0333  1.00271732 14429
ASIASTAR                
1 26107U 00016A   18021.76103362 -.00000330  00000-0  00000+0 0  9999
2 26107   2.1268  81.4277 0004067 215.3316 203.2569  1.00273970 65382
EUTELSAT 16C            
1 26243U 00019A   18021.78799300  .00000093  00000-0  00000+0 0  9993
2 26243   4.6768  65.2594 0003524 242.8641 111.1153  1.00271880 65025
EUTELSAT 80A            
1 26369U 00028A   18021.41577123 -.00000100  00000-0  00000+0 0  9999
2 26369   1.4713  85.2787 0006383 229.9703 302.4177  1.00272741 64708
TDRS 8                  
1 26388U 00034A   18020.56928169 -.00000228  00000-0  00000-0 0  9994
2 26388   7.8502  54.0392 0010390 256.8952 103.0536  1.00276717 64407
ECHOSTAR 6              
1 26402U 00038A   18022.20018328 -.00000146  00000-0  00000+0 0  9993
2 26402   4.5957  66.0043 0003302 238.5129 152.8332  1.00272040 64159
INTELSAT 9 (IS-9)       
1 26451U 00043A   18022.16437872 -.00000214  00000-0  00000+0 0  9993
2 26451   3.9581  70.2644 0002797 237.2797 203.5826  1.00270744 64080
BRASILSAT B4            
1 26469U 00046A   18021.15312843 -.00000167  00000-0  00000-0 0  9991
2 26469   2.1078  83.7840 0003019 225.9406 133.8844  1.00271368 64197
NILESAT 102             
1 26470U 00046B   18022.21321990 -.00000056  00000-0  00000+0 0  9990
2 26470   2.1369  82.7043 0005966 213.3564 255.2107  1.00271506 63874
ASTRA 2B                
1 26494U 00054A   18021.38677376 -.00000151  00000-0  00000+0 0  9990
2 26494   2.6582  78.2631 0004974 229.2148 292.8422  1.00272630 63468
AMC-7 (GE-7)            
1 26495U 00054B   18022.03762763  .00000091  00000-0  00000+0 0  9991
2 26495   0.0457  67.0726 0002499 221.9003  71.0000  1.00269776 63491
NSS-11 (AAP-1)          
1 26554U 00059A   18021.49351606  .00000040  00000-0  00000-0 0  9996
2 26554   0.0089  22.4473 0002749 120.5375 331.1212  1.00356188 10532
N-SAT-110 (JCSAT-110)   
1 26559U 00060A   18021.75846275 -.00000348  00000-0  00000+0 0  9994
2 26559   0.0234  83.5495 0001270  21.2337  39.3814  1.00273454 63340
AMC-6 (GE-6)            
1 26580U 00067A   18021.41854891 -.00000213  00000-0  00000+0 0  9992
2 26580   0.0443 273.4839 0002383  23.3752 251.5169  1.00273796 63214
INTELSAT 12 (IS-12)     
1 26590U 00068A   18021.50462622  .00000139  00000-0  00000-0 0  9998
2 26590   0.9503  91.6565 0005014 219.3596  36.4361  1.00272940 20941
INTELSAT 1R (IS-1R)     
1 26608U 00072A   18021.56226569 -.00000135  00000-0  00000-0 0  9994
2 26608   0.7582  93.3413 0000596 184.5700 202.4466  1.00271582 10555
ANIK F1                 
1 26624U 00076A   18020.96389828 -.00000070  00000-0  00000-0 0  9995
2 26624   0.0188 135.9820 0000827 133.7153  90.2786  1.00270778 12385
ASTRA 2D                
1 26638U 00081A   18020.69275052  .00000050  00000-0  00000-0 0  9996
2 26638   4.0686  69.0634 0002003 228.3850 131.6146  1.00270468 22130
AMC-8 (GE-8)            
1 26639U 00081B   18021.46299306  .00000108  00000-0  00000-0 0  9995
2 26639   0.0185 352.1179 0002687 297.9547 218.3489  1.00271187 62578
SKYNET 4F               
1 26695U 01005B   18020.35670958 -.00000245  00000-0  00000-0 0  9990
2 26695   9.1356  35.1386 0002554 261.4080 277.5974  1.00272423 62108
